start=new Date('2023-02-23T00:00:00.000Z').valueOf();
sats=[{"ECCENTRICITY":"0.00021290","RA_OF_ASC_NODE":"288.0686","BSTAR":"0.00149610000000","FILE":"3825529","OBJECT_TYPE":"PAYLOAD","COUNTRY_CODE":"US","APOAPSIS":"548.707","TIME_SYSTEM":"UTC","EPOCH":"2023-02-22T21:59:27.157920","TLE_LINE2":"2 48394  53.0517 288.0686 0002129  85.5712 274.5520 15.06393688101108","MEAN_ANOMALY":"274.5520","PERIAPSIS":"545.758","MEAN_MOTION_DOT":"0.00022070","SITE":"AFETR","RCS_SIZE":"LARGE","ELEMENT_SET_NO":"999","OBJECT_ID":"2021-038AT","MEAN_ELEMENT_THEORY":"SGP4","MEAN_MOTION_DDOT":"0.0000000000000","DECAY_DATE":null,"ARG_OF_PERICENTER":"85.5712","TLE_LINE1":"1 48394U 21038AT  23053.91628655  .00022070  00000-0  14961-2 0  9991","INCLINATION":"53.0517","PERIOD":"95.593","OBJECT_NAME":"STARLINK-2573","CENTER_NAME":"EARTH","MEAN_MOTION":"15.06393688","SEMIMAJOR_AXIS":"6925.368","CLASSIFICATION_TYPE":"U","GP_ID":"226472407","LAUNCH_DATE":"2021-05-04","REF_FRAME":"TEME","NORAD_CAT_ID":"48394","REV_AT_EPOCH":"10110","EPHEMERIS_TYPE":"0"},{"APOAPSIS":"548.457","OBJECT_TYPE":"PAYLOAD","COUNTRY_CODE":"US","FILE":"3825529","BSTAR":"0.00082972000000","RA_OF_ASC_NODE":"288.7969","ECCENTRICITY":"0.00016620","SITE":"AFETR","RCS_SIZE":"LARGE","MEAN_MOTION_DOT":"0.00012089","ELEMENT_SET_NO":"999","MEAN_ANOMALY":"323.1838","PERIAPSIS":"546.155","EPOCH":"2023-02-22T21:27:43.535232","TLE_LINE2":"2 48395  53.0523 288.7969 0001662  36.9265 323.1838 15.06369970101099","TIME_SYSTEM":"UTC","INCLINATION":"53.0523","ARG_OF_PERICENTER":"36.9265","TLE_LINE1":"1 48395U 21038AU  23053.89425388  .00012089  00000-0  82972-3 0  9994","DECAY_DATE":null,"MEAN_ELEMENT_THEORY":"SGP4","OBJECT_ID":"2021-038AU","MEAN_MOTION_DDOT":"0.0000000000000","REV_AT_EPOCH":"10109","NORAD_CAT_ID":"48395","EPHEMERIS_TYPE":"0","REF_FRAME":"TEME","LAUNCH_DATE":"2021-05-04","MEAN_MOTION":"15.06369970","CLASSIFICATION_TYPE":"U","GP_ID":"226472657","SEMIMAJOR_AXIS":"6925.441","CENTER_NAME":"EARTH","PERIOD":"95.594","OBJECT_NAME":"STARLINK-2574"},{"ELEMENT_SET_NO":"999","MEAN_MOTION_DOT":"0.00021664","SITE":"AFETR","RCS_SIZE":"LARGE","PERIAPSIS":"546.136","MEAN_ANOMALY":"277.0508","TLE_LINE2":"2 48396  53.0510 288.0962 0001667  83.0670 277.0508 15.06374877101105","EPOCH":"2023-02-22T21:54:09.488448","TIME_SYSTEM":"UTC","OBJECT_TYPE":"PAYLOAD","COUNTRY_CODE":"US","APOAPSIS":"548.445","FILE":"3825529","RA_OF_ASC_NODE":"288.0962","BSTAR":"0.00146980000000","ECCENTRICITY":"0.00016670","EPHEMERIS_TYPE":"0","REV_AT_EPOCH":"10110","NORAD_CAT_ID":"48396","REF_FRAME":"TEME","LAUNCH_DATE":"2021-05-04","SEMIMAJOR_AXIS":"6925.426","CLASSIFICATION_TYPE":"U","GP_ID":"226472908","MEAN_MOTION":"15.06374877","PERIOD":"95.594","OBJECT_NAME":"STARLINK-2575","CENTER_NAME":"EARTH","INCLINATION":"53.0510","TLE_LINE1":"1 48396U 21038AV  23053.91260982  .00021664  00000-0  14698-2 0  9993","ARG_OF_PERICENTER":"83.0670","DECAY_DATE":null,"MEAN_MOTION_DDOT":"0.0000000000000","OBJECT_ID":"2021-038AV","MEAN_ELEMENT_THEORY":"SGP4"},{"FILE":"3825529","COUNTRY_CODE":"US","OBJECT_TYPE":"PAYLOAD","APOAPSIS":"548.257","ECCENTRICITY":"0.00013910","RA_OF_ASC_NODE":"288.1106","BSTAR":"0.00102820000000","MEAN_ANOMALY":"288.4995","PERIAPSIS":"546.331","SITE":"AFETR","RCS_SIZE":"LARGE","MEAN_MOTION_DOT":"0.00015056","ELEMENT_SET_NO":"999","TIME_SYSTEM":"UTC","EPOCH":"2023-02-22T21:48:51.280704","TLE_LINE2":"2 48397  53.0515 288.1106 0001391  71.6145 288.4995 15.06373708101104","TLE_LINE1":"1 48397U 21038AW  23053.90892686  .00015056  00000-0  10282-2 0  9998","ARG_OF_PERICENTER":"71.6145","INCLINATION":"53.0515","OBJECT_ID":"2021-038AW","MEAN_ELEMENT_THEORY":"SGP4","MEAN_MOTION_DDOT":"0.0000000000000","DECAY_DATE":null,"LAUNCH_DATE":"2021-05-04","REF_FRAME":"TEME","REV_AT_EPOCH":"10110","NORAD_CAT_ID":"48397","EPHEMERIS_TYPE":"0","OBJECT_NAME":"STARLINK-2590","PERIOD":"95.594","CENTER_NAME":"EARTH","MEAN_MOTION":"15.06373708","SEMIMAJOR_AXIS":"6925.429","GP_ID":"226473133","CLASSIFICATION_TYPE":"U"},{"PERIOD":"95.594","OBJECT_NAME":"STARLINK-2588","CENTER_NAME":"EARTH","SEMIMAJOR_AXIS":"6925.419","GP_ID":"226471907","CLASSIFICATION_TYPE":"U","MEAN_MOTION":"15.06376900","REF_FRAME":"TEME","LAUNCH_DATE":"2021-05-04","EPHEMERIS_TYPE":"0","NORAD_CAT_ID":"48398","REV_AT_EPOCH":"10110","MEAN_MOTION_DDOT":"0.0000000000000","OBJECT_ID":"2021-038AX","MEAN_ELEMENT_THEORY":"SGP4","DECAY_DATE":null,"TLE_LINE1":"1 48398U 21038AX  23053.90523755  .00014921  00000-0  10191-2 0  9996","ARG_OF_PERICENTER":"99.7112","INCLINATION":"53.0509","TIME_SYSTEM":"UTC","TLE_LINE2":"2 48398  53.0509 288.1293 0000984  99.7112 260.3988 15.06376900101105","EPOCH":"2023-02-22T21:43:32.524320","PERIAPSIS":"546.603","MEAN_ANOMALY":"260.3988","ELEMENT_SET_NO":"999","SITE":"AFETR","RCS_SIZE":"LARGE","MEAN_MOTION_DOT":"0.00014921","ECCENTRICITY":"0.00009840","RA_OF_ASC_NODE":"288.1293","BSTAR":"0.00101910000000","FILE":"3825529","COUNTRY_CODE":"US","OBJECT_TYPE":"PAYLOAD","APOAPSIS":"547.966"},{"TLE_LINE1":"1 48399U 21038AY  23053.90154869  .00015595  00000-0  10640-2 0  9990","ARG_OF_PERICENTER":"91.6505","INCLINATION":"53.0519","MEAN_MOTION_DDOT":"0.0000000000000","MEAN_ELEMENT_THEORY":"SGP4","OBJECT_ID":"2021-038AY","DECAY_DATE":null,"REF_FRAME":"TEME","LAUNCH_DATE":"2021-05-04","EPHEMERIS_TYPE":"0","NORAD_CAT_ID":"48399","REV_AT_EPOCH":"10109","CENTER_NAME":"EARTH","OBJECT_NAME":"STARLINK-2587","PERIOD":"95.593","CLASSIFICATION_TYPE":"U","GP_ID":"226472157","SEMIMAJOR_AXIS":"6925.403","MEAN_MOTION":"15.06382287","FILE":"3825529","APOAPSIS":"547.908","COUNTRY_CODE":"US","OBJECT_TYPE":"PAYLOAD","ECCENTRICITY":"0.00009240","BSTAR":"0.00106400000000","RA_OF_ASC_NODE":"288.1383","PERIAPSIS":"546.628","MEAN_ANOMALY":"268.4590","ELEMENT_SET_NO":"999","SITE":"AFETR","MEAN_MOTION_DOT":"0.00015595","RCS_SIZE":"LARGE","TIME_SYSTEM":"UTC","TLE_LINE2":"2 48399  53.0519 288.1383 0000924  91.6505 268.4590 15.06382287101099","EPOCH":"2023-02-22T21:38:13.806816"},{"MEAN_ELEMENT_THEORY":"SGP4","OBJECT_ID":"2021-038AZ","MEAN_MOTION_DDOT":"0.0000000000000","DECAY_DATE":null,"TLE_LINE1":"1 48400U 21038AZ  23053.89786336  .00014264  00000-0  97484-3 0  9995","ARG_OF_PERICENTER":"79.3547","INCLINATION":"53.0513","CENTER_NAME":"EARTH","OBJECT_NAME":"STARLINK-2576","PERIOD":"95.593","MEAN_MOTION":"15.06389696","GP_ID":"226473409","CLASSIFICATION_TYPE":"U","SEMIMAJOR_AXIS":"6925.380","REF_FRAME":"TEME","LAUNCH_DATE":"2021-05-04","NORAD_CAT_ID":"48400","REV_AT_EPOCH":"9988","EPHEMERIS_TYPE":"0","ECCENTRICITY":"0.00008390","BSTAR":"0.00097484000000","RA_OF_ASC_NODE":"288.1559","FILE":"3825529","APOAPSIS":"547.826","COUNTRY_CODE":"US","OBJECT_TYPE":"PAYLOAD","TIME_SYSTEM":"UTC","EPOCH":"2023-02-22T21:32:55.394304","TLE_LINE2":"2 48400  53.0513 288.1559 0000839  79.3547 280.7536 15.06389696 99886","MEAN_ANOMALY":"280.7536","PERIAPSIS":"546.664","MEAN_MOTION_DOT":"0.00014264","SITE":"AFETR","RCS_SIZE":"LARGE","ELEMENT_SET_NO":"999"},{"SEMIMAJOR_AXIS":"6925.434","GP_ID":"226473634","CLASSIFICATION_TYPE":"U","MEAN_MOTION":"15.06372121","OBJECT_NAME":"STARLINK-2571","PERIOD":"95.594","CENTER_NAME":"EARTH","EPHEMERIS_TYPE":"0","NORAD_CAT_ID":"48401","REV_AT_EPOCH":"9988","LAUNCH_DATE":"2021-05-04","REF_FRAME":"TEME","DECAY_DATE":null,"MEAN_MOTION_DDOT":"0.0000000000000","OBJECT_ID":"2021-038BA","MEAN_ELEMENT_THEORY":"SGP4","INCLINATION":"53.0506","TLE_LINE1":"1 48401U 21038BA  23053.93472370  .00014284  00000-0  97663-3 0  9992","ARG_OF_PERICENTER":"71.0843","TLE_LINE2":"2 48401  53.0506 288.0066 0001511  71.0843 289.0309 15.06372121 99882","EPOCH":"2023-02-22T22:26:00.127680","TIME_SYSTEM":"UTC","ELEMENT_SET_NO":"999","SITE":"AFETR","RCS_SIZE":"LARGE","MEAN_MOTION_DOT":"0.00014284","PERIAPSIS":"546.253","MEAN_ANOMALY":"289.0309","RA_OF_ASC_NODE":"288.0066","BSTAR":"0.00097663000000","ECCENTRICITY":"0.00015110","COUNTRY_CODE":"US","OBJECT_TYPE":"PAYLOAD","APOAPSIS":"548.345","FILE":"3825529"},{"MEAN_MOTION_DDOT":"0.0000000000000","OBJECT_ID":"2021-038BB","MEAN_ELEMENT_THEORY":"SGP4","DECAY_DATE":null,"ARG_OF_PERICENTER":"47.7382","TLE_LINE1":"1 48402U 21038BB  23053.89322779  .00014837  00000-0  10138-2 0  9990","INCLINATION":"53.0502","OBJECT_NAME":"STARLINK-2560","PERIOD":"95.594","CENTER_NAME":"EARTH","SEMIMAJOR_AXIS":"6925.456","GP_ID":"226472408","CLASSIFICATION_TYPE":"U","MEAN_MOTION":"15.06365043","REF_FRAME":"TEME","LAUNCH_DATE":"2021-05-04","EPHEMERIS_TYPE":"0","REV_AT_EPOCH":"9988","NORAD_CAT_ID":"48402","ECCENTRICITY":"0.00009090","RA_OF_ASC_NODE":"288.1722","BSTAR":"0.00101380000000","FILE":"3825529","OBJECT_TYPE":"PAYLOAD","COUNTRY_CODE":"US","APOAPSIS":"547.950","TIME_SYSTEM":"UTC","TLE_LINE2":"2 48402  53.0502 288.1722 0000909  47.7382 312.3684 15.06365043 99888","EPOCH":"2023-02-22T21:26:14.881056","PERIAPSIS":"546.691","MEAN_ANOMALY":"312.3684","ELEMENT_SET_NO":"999","RCS_SIZE":"LARGE","SITE":"AFETR","MEAN_MOTION_DOT":"0.00014837"},{"RA_OF_ASC_NODE":"291.7596","BSTAR":"0.00162960000000","ECCENTRICITY":"0.00010120","COUNTRY_CODE":"US","OBJECT_TYPE":"PAYLOAD","APOAPSIS":"547.742","FILE":"3824148","TLE_LINE2":"2 48403  53.0533 291.7596 0001012 104.2426 255.8675 15.06456192 99760","EPOCH":"2023-02-22T02:15:48.625920","TIME_SYSTEM":"UTC","ELEMENT_SET_NO":"999","RCS_SIZE":"LARGE","SITE":"AFETR","MEAN_MOTION_DOT":"0.00024112","PERIAPSIS":"546.341","MEAN_ANOMALY":"255.8675","DECAY_DATE":null,"MEAN_MOTION_DDOT":"0.0000000000000","OBJECT_ID":"2021-038BC","MEAN_ELEMENT_THEORY":"SGP4","INCLINATION":"53.0533","TLE_LINE1":"1 48403U 21038BC  23053.09431280  .00024112  00000-0  16296-2 0  9999","ARG_OF_PERICENTER":"104.2426","SEMIMAJOR_AXIS":"6925.176","CLASSIFICATION_TYPE":"U","GP_ID":"226420146","MEAN_MOTION":"15.06456192","OBJECT_NAME":"STARLINK-2561","PERIOD":"95.589","CENTER_NAME":"EARTH","EPHEMERIS_TYPE":"0","NORAD_CAT_ID":"48403","REV_AT_EPOCH":"9976","REF_FRAME":"TEME","LAUNCH_DATE":"2021-05-04"}];
